{
    "links": {
        "self": "http://www.neowsapp.com/rest/v1/neo/3670393?api_key=iIulBulltgU6a56xZRHN4H3l9WmuAYTsLGpBGhQ2"
    },
    "id": "3670393",
    "neo_reference_id": "3670393",
    "name": "(2014 JE15)",
    "designation": "2014 JE15",
    "nasa_jpl_url": "http://ssd.jpl.nasa.gov/sbdb.cgi?sstr=3670393",
    "absolute_magnitude_h": 25.1,
    "estimated_diameter": {
        "kilometers": {
            "estimated_diameter_min": 0.0253837029,
            "estimated_diameter_max": 0.0567596853
        },
        "meters": {
            "estimated_diameter_min": 25.3837029364,
            "estimated_diameter_max": 56.7596852866
        },
        "miles": {
            "estimated_diameter_min": 0.0157726969,
            "estimated_diameter_max": 0.0352688224
        },
        "feet": {
            "estimated_diameter_min": 83.279867942,
            "estimated_diameter_max": 186.2194458756
        }
    },
    "is_potentially_hazardous_asteroid": false,
    "close_approach_data": [
        {
            "close_approach_date": "2000-07-06",
            "close_approach_date_full": "2000-Jul-06 12:57",
            "epoch_date_close_approach": 962888220000,
            "relative_velocity": {
                "kilometers_per_second": "13.9215609909",
                "kilometers_per_hour": "50117.6195671712",
                "miles_per_hour": "31141.1397805015"
            },
            "miss_distance": {
                "astronomical": "0.3485456085",
                "lunar": "135.5842417065",
                "kilometers": "52141680.629453895",
                "miles": "32399337.965877951"
            },
            "orbiting_body": "Earth"
        },
        {
            "close_approach_date": "2014-05-28",
            "close_approach_date_full": "2014-May-28 02:28",
            "epoch_date_close_approach": 1401244080000,
            "relative_velocity": {
                "kilometers_per_second": "5.6765205587",
                "kilometers_per_hour": "20435.4740114779",
                "miles_per_hour": "12697.8088378541"
            },
            "miss_distance": {
                "astronomical": "0.1052786777",
                "lunar": "40.9534056253",
                "kilometers": "15749465.940336499",
                "miles": "9786264.3402177262"
            },
            "orbiting_body": "Earth"
        },
        {
            "close_approach_date": "2021-04-29",
            "close_approach_date_full": "2021-Apr-29 11:40",
            "epoch_date_close_approach": 1619696400000,
            "relative_velocity": {
                "kilometers_per_second": "13.8703460397",
                "kilometers_per_hour": "49933.2457428296",
                "miles_per_hour": "31026.5770561488"
            },
            "miss_distance": {
                "astronomical": "0.3471567454",
                "lunar": "135.0439739606",
                "kilometers": "51933909.667972298",
                "miles": "32270235.0769937924"
            },
            "orbiting_body": "Earth"
        }
    ],
    "orbital_data": {
        "orbit_id": "10",
        "orbit_determination_date": "2017-04-06 08:40:39",
        "first_observation_date": "2014-04-28",
        "last_observation_date": "2014-06-21",
        "data_arc_in_days": 54,
        "observations_used": 26,
        "orbit_uncertainty": "6",
        "minimum_orbit_intersection": ".0986628",
        "jupiter_tisserand_invariant": "3.404",
        "epoch_osculation": "2459000.5",
        "eccentricity": ".5165132163575007",
        "semi_major_axis": "2.295033095117275",
        "inclination": "1.348270309493023",
        "ascending_node_longitude": "337.2273830859826",
        "orbital_period": "1269.936061549974",
        "perihelion_distance": "1.109618169511341",
        "perihelion_argument": "273.4746103092162",
        "aphelion_distance": "3.480448020723208",
        "perihelion_time": "2459347.435112435521",
        "mean_anomaly": "261.6512372092578",
        "mean_motion": ".2834788387382395",
        "equinox": "J2000",
        "orbit_class": {
            "orbit_class_type": "AMO",
            "orbit_class_description": "Near-Earth asteroid orbits similar to that of 1221 Amor",
            "orbit_class_range": "1.017 AU < q (perihelion) < 1.3 AU"
        }
    },
    "is_sentry_object": false
}